[{"OBJECT_NAME":"POLYITAN-1","OBJECT_ID":"2014-033AJ","EPOCH":"2026-03-09T22:27:50.258304","MEAN_MOTION":15.29568085,"ECCENTRICITY":0.00093607,"INCLINATION":98.1053,"RA_OF_ASC_NODE":86.0432,"ARG_OF_PERICENTER":127.248,"MEAN_ANOMALY":232.9614,"EPHEMERIS_TYPE":0,"CLASSIFICATION_TYPE":"U","NORAD_CAT_ID":40042,"ELEMENT_SET_NO":999,"REV_AT_EPOCH":63840,"BSTAR":0.00083772474,"MEAN_MOTION_DOT":0.00024003,"MEAN_MOTION_DDOT":0},{"OBJECT_NAME":"STARLINK-31738","OBJECT_ID":"2024-074B","EPOCH":"2026-03-09T03:22:01.120800","MEAN_MOTION":15.27566278,"ECCENTRICITY":0.00017898,"INCLINATION":43.0029,"RA_OF_ASC_NODE":342.7991,"ARG_OF_PERICENTER":259.9964,"MEAN_ANOMALY":100.0686,"EPHEMERIS_TYPE":0,"CLASSIFICATION_TYPE":"U","NORAD_CAT_ID":59535,"ELEMENT_SET_NO":999,"REV_AT_EPOCH":10597,"BSTAR":-0.0001780043,"MEAN_MOTION_DOT":-5.155e-5,"MEAN_MOTION_DDOT":0}]
